      2.10          N: GNSS NAV DATA                        RINEX VERSION / TYPE
fic2rin                                 03/30/2018 00:47:58 PGM / RUN BY / DATE
                                                            END OF HEADER
12 18  3 29 12  0  0.0 3.426554612815e-04-2.160049916711e-12 0.000000000000e+00
    1.340000000000e+02-2.306250000000e+01 3.728012429539e-09-5.490593033467e-01
   -1.208856701851e-06 7.134251412936e-03 1.180544495583e-05 5.153624774933e+03
    3.888000000000e+05 1.117587089539e-08 2.624364131849e+00 1.378357410431e-07
    9.872283366514e-01 1.667187500000e+02 9.455807222726e-01-7.738893784561e-09
   -4.243033882249e-10 1.000000000000e+00 1.994000000000e+03 0.000000000000e+00
    3.400000000000e+00 0.000000000000e+00-1.257285475731e-08 1.340000000000e+02
    3.816060000000e+05 4.000000000000e+00
 6 18  3 29 12  0  0.0 4.110601730645e-04-1.364242052659e-12 0.000000000000e+00
    7.400000000000e+01-2.606250000000e+01 4.748769233871e-09 9.318211014491e-01
   -1.257285475731e-06 1.206940971315e-03 2.061948180199e-06 5.153590858459e+03
    3.888000000000e+05 1.117587089539e-08-1.630494881502e+00 5.587935447693e-09
    9.699254375391e-01 3.413125000000e+02-1.153066017485e+00-8.504282808943e-09
   -3.571577341961e-13 1.000000000000e+00 1.994000000000e+03 0.000000000000e+00
    2.400000000000e+00 0.000000000000e+00 4.656612873077e-09 7.400000000000e+01
    3.816060000000e+05 4.000000000000e+00
26 18  3 29 12  0  0.0-2.011237666011e-04 1.318767317571e-11 0.000000000000e+00
    7.000000000000e+00-3.596875000000e+01 4.338037839546e-09-1.537528675829e+00
   -1.905485987663e-06 2.774765947834e-03 1.158379018307e-05 5.153634397507e+03
    3.888000000000e+05-2.421438694000e-08 2.544471017100e+00-4.284083843231e-08
    9.564147863548e-01 1.556875000000e+02 8.721353194796e-02-7.918901282596e-09
   -4.828772566331e-10 1.000000000000e+00 1.994000000000e+03 0.000000000000e+00
    2.400000000000e+00 0.000000000000e+00 7.450580596924e-09 7.000000000000e+00
    3.816060000000e+05 4.000000000000e+00
20 18  3 29 12  0  0.0 5.044285207987e-04 1.023181539495e-12 0.000000000000e+00
    5.000000000000e+00-9.546875000000e+01 5.198787978958e-09 1.439954504959e+00
   -5.023553967476e-06 4.292681347579e-03 9.721145033836e-06 5.154832151413e+03
    3.888000000000e+05 3.725290298462e-08-6.865055829588e-01-7.450580596924e-08
    9.282385043110e-01 1.756250000000e+02 1.906460052262e+00-8.362848346201e-09
   -2.750114553310e-10 1.000000000000e+00 1.994000000000e+03 0.000000000000e+00
    2.400000000000e+00 0.000000000000e+00-8.381903171539e-09 5.000000000000e+00
    3.816060000000e+05 4.000000000000e+00
28 18  3 29 12  0  0.0 7.014060392976e-04 3.410605131648e-12 0.000000000000e+00
    2.500000000000e+01-2.768750000000e+01 3.449786554600e-09-2.491403239528e+00
   -1.419335603714e-06 1.955363410525e-02 1.340545713902e-05 5.153681747437e+03
    3.888000000000e+05 2.235174179077e-07 2.647539672746e+00-7.450580596924e-09
    9.865408383001e-01 1.311875000000e+02-1.523541998417e+00-7.170655829455e-09
   -4.439470636057e-10 1.000000000000e+00 1.994000000000e+03 0.000000000000e+00
    3.400000000000e+00 0.000000000000e+00-1.117587089539e-08 2.500000000000e+01
    3.816060000000e+05 4.000000000000e+00
22 18  3 29 12  0  0.0-3.395597450435e-04-1.296029950026e-11 0.000000000000e+00
    9.200000000000e+01-1.105000000000e+02 5.263790686582e-09 2.263739782123e+00
   -5.731359124184e-06 7.415182422847e-03 1.139566302299e-05 5.153563226700e+03
    3.888000000000e+05 1.266598701477e-07-6.363318025966e-01-6.146728992462e-08
    9.250174293403e-01 1.418125000000e+02-1.584992812993e+00-8.291416799362e-09
   -3.207276453081e-10 1.000000000000e+00 1.994000000000e+03 0.000000000000e+00
    2.400000000000e+00 0.000000000000e+00-1.769512891769e-08 9.200000000000e+01
    3.816060000000e+05 4.000000000000e+00
24 18  3 29 12  0  0.0-4.787137731910e-05-4.547473508865e-13 0.000000000000e+00
    1.000000000000e+02-8.000000000000e+00 5.568446233851e-09 9.737027154264e-01
   -2.346932888031e-07 6.890746066347e-03 3.263354301453e-06 5.153646902084e+03
    3.888000000000e+05 2.980232238770e-08 1.474088693505e+00 7.450580596924e-08
    9.418552316852e-01 3.047500000000e+02 5.414285295401e-01-8.852154442050e-09
   -2.603679882289e-10 1.000000000000e+00 1.994000000000e+03 0.000000000000e+00
    3.400000000000e+00 0.000000000000e+00 2.793967723846e-09 1.000000000000e+02
    3.816060000000e+05 4.000000000000e+00
25 18  3 29 12  0  0.0-5.611311644316e-04-6.025402399246e-12 0.000000000000e+00
    8.800000000000e+01-3.262500000000e+01 3.972308319729e-09-1.006293540028e+00
   -1.756474375725e-06 7.402356597595e-03 1.126341521740e-05 5.153671369553e+03
    3.888000000000e+05 1.508742570877e-07 2.565356456296e+00 1.639127731323e-07
    9.748631386199e-01 1.702500000000e+02 8.324270546367e-01-7.814254066476e-09
   -5.228789228631e-10 1.000000000000e+00 1.994000000000e+03 0.000000000000e+00
    2.400000000000e+00 0.000000000000e+00 5.587935447693e-09 8.800000000000e+01
    3.816060000000e+05 4.000000000000e+00
13 18  3 29 12  0  0.0-9.536510333419e-05 1.136868377216e-13 0.000000000000e+00
    7.100000000000e+01 7.109375000000e+01 4.543403536708e-09 1.486959328270e+00
    3.650784492493e-06 3.573126625270e-03 8.851289749146e-06 5.153658557892e+03
    3.888000000000e+05-5.215406417847e-08 5.855018888467e-01-1.210719347000e-07
    9.689253735738e-01 2.125312500000e+02 1.608558637027e+00-8.021405552310e-09
    5.389510209019e-10 1.000000000000e+00 1.994000000000e+03 0.000000000000e+00
    2.400000000000e+00 0.000000000000e+00-1.117587089539e-08 7.100000000000e+01
    3.816060000000e+05 4.000000000000e+00
15 18  3 29 12  0  0.0-3.560059703887e-04 3.410605131648e-13 0.000000000000e+00
    6.100000000000e+01 5.921875000000e+01 5.322721712724e-09 2.048828703036e+00
    3.051012754440e-06 1.019955729134e-02 1.052394509315e-05 5.153716848373e+03
    3.888000000000e+05-3.129243850708e-07 3.854839360847e-01-9.499490261078e-08
    9.288193281389e-01 1.619062500000e+02 6.724135183906e-01-8.367491396746e-09
    4.875203071777e-10 1.000000000000e+00 1.994000000000e+03 0.000000000000e+00
    2.400000000000e+00 0.000000000000e+00-1.071020960808e-08 6.100000000000e+01
    3.816060000000e+05 4.000000000000e+00
19 18  3 29 12  0  0.0-4.475191235542e-04 2.614797267597e-12 0.000000000000e+00
    4.500000000000e+01 9.565625000000e+01 4.072669643038e-09-4.739379289371e-01
    5.206093192101e-06 9.762563277036e-03 8.448958396912e-06 5.153705381393e+03
    3.888000000000e+05-5.960464477539e-08-2.577999496118e+00 1.136213541031e-07
    9.799489162686e-01 2.299375000000e+02 1.143943620221e+00-8.097122991959e-09
    5.957391006391e-10 1.000000000000e+00 1.994000000000e+03 0.000000000000e+00
    2.400000000000e+00 0.000000000000e+00-1.536682248116e-08 4.500000000000e+01
    3.816060000000e+05 4.000000000000e+00
17 18  3 29 12  0  0.0-1.116176135838e-04 3.296918293927e-12 0.000000000000e+00
    4.800000000000e+01 1.045000000000e+02 3.813015970277e-09 2.775132088739e+00
    5.392357707024e-06 1.229573681485e-02 8.743256330490e-06 5.153785001755e+03
    3.888000000000e+05 9.126961231232e-08-2.625098026647e+00-1.303851604462e-07
    9.825078496471e-01 2.180000000000e+02-1.781981081430e+00-7.633532252973e-09
    5.285934466102e-10 1.000000000000e+00 1.994000000000e+03 0.000000000000e+00
    2.400000000000e+00 0.000000000000e+00-1.117587089539e-08 4.800000000000e+01
    3.816060000000e+05 4.000000000000e+00
32 18  3 29 12  0  0.0-5.251634865999e-04 2.842170943040e-12 0.000000000000e+00
    6.300000000000e+01 7.131250000000e+01 4.691266838666e-09-2.601455035147e+00
    3.729015588760e-06 1.874081441201e-03 9.907409548759e-06 5.153651227951e+03
    3.888000000000e+05 0.000000000000e+00 4.594056386717e-01-1.490116119385e-08
    9.576255105235e-01 1.861250000000e+02-2.639349865276e+00-8.108909197188e-09
    5.178787145843e-10 1.000000000000e+00 1.994000000000e+03 0.000000000000e+00
    2.400000000000e+00 0.000000000000e+00 4.656612873077e-10 6.300000000000e+01
    3.816060000000e+05 4.000000000000e+00
16 18  3 29 12  0  0.0 2.909032627940e-05-9.094947017729e-13 0.000000000000e+00
    5.700000000000e+01-1.634375000000e+01 3.509789053945e-09-2.446731185386e+00
   -9.685754776001e-07 1.002125861123e-02 1.331232488155e-05 5.153614580154e+03
    3.888000000000e+05 2.980232238770e-08 2.643250884089e+00-1.322478055954e-07
    9.876774788343e-01 1.368125000000e+02 4.910722428329e-01-7.463168013761e-09
   -3.614436270064e-10 1.000000000000e+00 1.994000000000e+03 0.000000000000e+00
    2.400000000000e+00 0.000000000000e+00-1.071020960808e-08 5.700000000000e+01
    3.816060000000e+05 4.000000000000e+00
18 18  3 29 12  0  0.0-9.973533451557e-06 4.888534022029e-12 0.000000000000e+00
    1.180000000000e+02-2.190625000000e+01 5.377009688322e-09 4.507409943259e-01
   -1.285225152969e-06 1.433090865612e-02 2.192333340645e-06 5.153667987823e+03
    3.888000000000e+05-2.123415470123e-07-1.668004082037e+00 2.421438694000e-08
    9.485472187762e-01 3.318125000000e+02 1.295939705616e+00-9.063948978428e-09
   -9.143237995420e-11 1.000000000000e+00 1.994000000000e+03 0.000000000000e+00
    2.400000000000e+00 0.000000000000e+00-6.519258022308e-09 1.180000000000e+02
    3.816060000000e+05 4.000000000000e+00
29 18  3 29 12  0  0.0 4.747989587486e-04-6.025402399246e-12 0.000000000000e+00
    6.900000000000e+01 9.456250000000e+01 3.911948662650e-09-2.095195133767e+00
    4.943460226059e-06 6.216318579391e-04 8.245930075645e-06 5.153719806671e+03
    3.888000000000e+05-4.470348358154e-08-2.614582410572e+00-2.048909664154e-08
    9.837538740290e-01 2.333125000000e+02 8.654981947424e-01-7.848541208959e-09
    4.593048461762e-10 1.000000000000e+00 1.994000000000e+03 0.000000000000e+00
    2.400000000000e+00 0.000000000000e+00-1.024454832077e-08 6.900000000000e+01
    3.816060000000e+05 4.000000000000e+00
